SL-3 R/B                
1 13403U 82079B   26008.53886201  .00006436  00000+0  26247-3 0  9998
2 13403  81.1460 264.0658 0025883  12.3901 347.7963 15.23970031368531
SL-14 R/B               
1 13553U 82092B   26008.60554770  .00000661  00000+0  71479-4 0  9992
2 13553  82.5667 197.5849 0021330 137.5022 287.6243 14.86588315320001
SL-3 R/B                
1 13819U 83010B   26008.60470149  .00015492  00000+0  33377-3 0  9997
2 13819  81.1033  75.8066 0016179 254.2874 105.6585 15.44325796348661
SL-3 R/B                
1 14208U 83075B   26008.61990109  .00013232  00000+0  36646-3 0  9997
2 14208  97.6119  11.0182 0024548  85.0716 275.3330 15.36800398320925
COSMOS 1536             
1 14699U 84013A   26008.48663524  .00007564  00000+0  31994-3 0  9999
2 14699  82.5460 167.6316 0015401 131.2682 228.9884 15.22934036263456
SL-14 R/B               
1 14820U 84027B   26008.29010303  .00000637  00000+0  70074-4 0  9997
2 14820  82.5432 301.6595 0018167 168.5142 191.6493 14.85909332238662
SL-8 R/B                
1 15483U 85006B   26008.40983752  .00000353  00000+0  12597-3 0  9991
2 15483  74.0459  12.0627 0019682 299.5507 165.7433 14.37742025145366
SL-12 R/B(2)            
1 15772U 85042D   26008.61761427  .00000135  00000+0  82100-4 0  9994
2 15772  71.1065 214.6385 0036736 221.8905 194.7393 14.21960770105857
SL-14 R/B               
1 15945U 85069B   26008.56253191  .00000594  00000+0  64413-4 0  9999
2 15945  82.5265  81.4864 0019638  35.6087 324.6436 14.86360209163907
SL-16 R/B               
1 16182U 85097B   26008.49320557  .00000288  00000+0  16814-3 0  9998
2 16182  71.0031 267.2816 0008280 332.5237 200.0922 14.16590509 78704
SL-14 R/B               
1 16496U 86006B   26008.55490874  .00000860  00000+0  88476-4 0  9994
2 16496  82.5285 316.3215 0078168 111.5883 249.3686 14.86714149140273
COSMOS 1743             
1 16719U 86034A   26008.39459674  .00037178  00000+0  57245-3 0  9999
2 16719  82.5359 136.8716 0005204 149.8031 210.3524 15.54013608170870
