CCSDS_OMM_VERS = 2.0
CREATION_DATE  = 
ORIGINATOR     = 

OBJECT_NAME    = SL-3 R/B
OBJECT_ID      = 1982-079B
CENTER_NAME    = EARTH
REF_FRAME      = TEME
TIME_SYSTEM    = UTC
MEAN_ELEMENT_THEORY = SGP/SGP4

EPOCH          = 2026-01-08T12:55:57.677664
MEAN_MOTION    = 15.23970031
ECCENTRICITY   = .00258832
INCLINATION    = 81.1460
RA_OF_ASC_NODE = 264.0658
ARG_OF_PERICENTER = 12.3901
MEAN_ANOMALY   = 347.7963

EPHEMERIS_TYPE = 0
CLASSIFICATION_TYPE = U
NORAD_CAT_ID   = 13403
ELEMENT_SET_NO = 999
REV_AT_EPOCH   = 36853
BSTAR          = .26247275E-3
MEAN_MOTION_DOT = .6436E-4
MEAN_MOTION_DDOT = 0

CCSDS_OMM_VERS = 2.0
CREATION_DATE  = 
ORIGINATOR     = 

OBJECT_NAME    = SL-14 R/B
OBJECT_ID      = 1982-092B
CENTER_NAME    = EARTH
REF_FRAME      = TEME
TIME_SYSTEM    = UTC
MEAN_ELEMENT_THEORY = SGP/SGP4

EPOCH          = 2026-01-08T14:31:59.321280
MEAN_MOTION    = 14.86588315
ECCENTRICITY   = .00213302
INCLINATION    = 82.5667
RA_OF_ASC_NODE = 197.5849
ARG_OF_PERICENTER = 137.5022
MEAN_ANOMALY   = 287.6243

EPHEMERIS_TYPE = 0
CLASSIFICATION_TYPE = U
NORAD_CAT_ID   = 13553
ELEMENT_SET_NO = 999
REV_AT_EPOCH   = 32000
BSTAR          = .71479256E-4
MEAN_MOTION_DOT = .661E-5
MEAN_MOTION_DDOT = 0

CCSDS_OMM_VERS = 2.0
CREATION_DATE  = 
ORIGINATOR     = 

OBJECT_NAME    = SL-3 R/B
OBJECT_ID      = 1983-010B
CENTER_NAME    = EARTH
REF_FRAME      = TEME
TIME_SYSTEM    = UTC
MEAN_ELEMENT_THEORY = SGP/SGP4

EPOCH          = 2026-01-08T14:30:46.208736
MEAN_MOTION    = 15.44325796
ECCENTRICITY   = .00161799
INCLINATION    = 81.1033
RA_OF_ASC_NODE = 75.8066
ARG_OF_PERICENTER = 254.2874
MEAN_ANOMALY   = 105.6585

EPHEMERIS_TYPE = 0
CLASSIFICATION_TYPE = U
NORAD_CAT_ID   = 13819
ELEMENT_SET_NO = 999
REV_AT_EPOCH   = 34866
BSTAR          = .33377014E-3
MEAN_MOTION_DOT = .15492E-3
MEAN_MOTION_DDOT = 0

CCSDS_OMM_VERS = 2.0
CREATION_DATE  = 
ORIGINATOR     = 

OBJECT_NAME    = SL-3 R/B
OBJECT_ID      = 1983-075B
CENTER_NAME    = EARTH
REF_FRAME      = TEME
TIME_SYSTEM    = UTC
MEAN_ELEMENT_THEORY = SGP/SGP4

EPOCH          = 2026-01-08T14:52:39.454176
MEAN_MOTION    = 15.36800398
ECCENTRICITY   = .00245481
INCLINATION    = 97.6119
RA_OF_ASC_NODE = 11.0182
ARG_OF_PERICENTER = 85.0716
MEAN_ANOMALY   = 275.3330

EPHEMERIS_TYPE = 0
CLASSIFICATION_TYPE = U
NORAD_CAT_ID   = 14208
ELEMENT_SET_NO = 999
REV_AT_EPOCH   = 32092
BSTAR          = .36645958E-3
MEAN_MOTION_DOT = .13232E-3
MEAN_MOTION_DDOT = 0

CCSDS_OMM_VERS = 2.0
CREATION_DATE  = 
ORIGINATOR     = 

OBJECT_NAME    = COSMOS 1536
OBJECT_ID      = 1984-013A
CENTER_NAME    = EARTH
REF_FRAME      = TEME
TIME_SYSTEM    = UTC
MEAN_ELEMENT_THEORY = SGP/SGP4

EPOCH          = 2026-01-08T11:40:45.284736
MEAN_MOTION    = 15.22934036
ECCENTRICITY   = .00154016
INCLINATION    = 82.5460
RA_OF_ASC_NODE = 167.6316
ARG_OF_PERICENTER = 131.2682
MEAN_ANOMALY   = 228.9884

EPHEMERIS_TYPE = 0
CLASSIFICATION_TYPE = U
NORAD_CAT_ID   = 14699
ELEMENT_SET_NO = 999
REV_AT_EPOCH   = 26345
BSTAR          = .31994267E-3
MEAN_MOTION_DOT = .7564E-4
MEAN_MOTION_DDOT = 0

CCSDS_OMM_VERS = 2.0
CREATION_DATE  = 
ORIGINATOR     = 

OBJECT_NAME    = SL-14 R/B
OBJECT_ID      = 1984-027B
CENTER_NAME    = EARTH
REF_FRAME      = TEME
TIME_SYSTEM    = UTC
MEAN_ELEMENT_THEORY = SGP/SGP4

EPOCH          = 2026-01-08T06:57:44.901792
MEAN_MOTION    = 14.85909332
ECCENTRICITY   = .0018167
INCLINATION    = 82.5432
RA_OF_ASC_NODE = 301.6595
ARG_OF_PERICENTER = 168.5142
MEAN_ANOMALY   = 191.6493

EPHEMERIS_TYPE = 0
CLASSIFICATION_TYPE = U
NORAD_CAT_ID   = 14820
ELEMENT_SET_NO = 999
REV_AT_EPOCH   = 23866
BSTAR          = .70074E-4
MEAN_MOTION_DOT = .637E-5
MEAN_MOTION_DDOT = 0

CCSDS_OMM_VERS = 2.0
CREATION_DATE  = 
ORIGINATOR     = 

OBJECT_NAME    = SL-8 R/B
OBJECT_ID      = 1985-006B
CENTER_NAME    = EARTH
REF_FRAME      = TEME
TIME_SYSTEM    = UTC
MEAN_ELEMENT_THEORY = SGP/SGP4

EPOCH          = 2026-01-08T09:50:09.961728
MEAN_MOTION    = 14.37742025
ECCENTRICITY   = .0019682
INCLINATION    = 74.0459
RA_OF_ASC_NODE = 12.0627
ARG_OF_PERICENTER = 299.5507
MEAN_ANOMALY   = 165.7433

EPHEMERIS_TYPE = 0
CLASSIFICATION_TYPE = U
NORAD_CAT_ID   = 15483
ELEMENT_SET_NO = 999
REV_AT_EPOCH   = 14536
BSTAR          = .12597409E-3
MEAN_MOTION_DOT = .353E-5
MEAN_MOTION_DDOT = 0

CCSDS_OMM_VERS = 2.0
CREATION_DATE  = 
ORIGINATOR     = 

OBJECT_NAME    = SL-12 R/B(2)
OBJECT_ID      = 1985-042D
CENTER_NAME    = EARTH
REF_FRAME      = TEME
TIME_SYSTEM    = UTC
MEAN_ELEMENT_THEORY = SGP/SGP4

EPOCH          = 2026-01-08T14:49:21.872928
MEAN_MOTION    = 14.21960770
ECCENTRICITY   = .00367365
INCLINATION    = 71.1065
RA_OF_ASC_NODE = 214.6385
ARG_OF_PERICENTER = 221.8905
MEAN_ANOMALY   = 194.7393

EPHEMERIS_TYPE = 0
CLASSIFICATION_TYPE = U
NORAD_CAT_ID   = 15772
ELEMENT_SET_NO = 999
REV_AT_EPOCH   = 10585
BSTAR          = .82100135E-4
MEAN_MOTION_DOT = .135E-5
MEAN_MOTION_DDOT = 0

CCSDS_OMM_VERS = 2.0
CREATION_DATE  = 
ORIGINATOR     = 

OBJECT_NAME    = SL-14 R/B
OBJECT_ID      = 1985-069B
CENTER_NAME    = EARTH
REF_FRAME      = TEME
TIME_SYSTEM    = UTC
MEAN_ELEMENT_THEORY = SGP/SGP4

EPOCH          = 2026-01-08T13:30:02.757024
MEAN_MOTION    = 14.86360209
ECCENTRICITY   = .00196384
INCLINATION    = 82.5265
RA_OF_ASC_NODE = 81.4864
ARG_OF_PERICENTER = 35.6087
MEAN_ANOMALY   = 324.6436

EPHEMERIS_TYPE = 0
CLASSIFICATION_TYPE = U
NORAD_CAT_ID   = 15945
ELEMENT_SET_NO = 999
REV_AT_EPOCH   = 16390
BSTAR          = .64412793E-4
MEAN_MOTION_DOT = .594E-5
MEAN_MOTION_DDOT = 0

CCSDS_OMM_VERS = 2.0
CREATION_DATE  = 
ORIGINATOR     = 

OBJECT_NAME    = SL-16 R/B
OBJECT_ID      = 1985-097B
CENTER_NAME    = EARTH
REF_FRAME      = TEME
TIME_SYSTEM    = UTC
MEAN_ELEMENT_THEORY = SGP/SGP4

EPOCH          = 2026-01-08T11:50:12.961248
MEAN_MOTION    = 14.16590509
ECCENTRICITY   = .00082804
INCLINATION    = 71.0031
RA_OF_ASC_NODE = 267.2816
ARG_OF_PERICENTER = 332.5237
MEAN_ANOMALY   = 200.0922

EPHEMERIS_TYPE = 0
CLASSIFICATION_TYPE = U
NORAD_CAT_ID   = 16182
ELEMENT_SET_NO = 999
REV_AT_EPOCH   = 7870
BSTAR          = .16814385E-3
MEAN_MOTION_DOT = .288E-5
MEAN_MOTION_DDOT = 0

CCSDS_OMM_VERS = 2.0
CREATION_DATE  = 
ORIGINATOR     = 

OBJECT_NAME    = SL-14 R/B
OBJECT_ID      = 1986-006B
CENTER_NAME    = EARTH
REF_FRAME      = TEME
TIME_SYSTEM    = UTC
MEAN_ELEMENT_THEORY = SGP/SGP4

EPOCH          = 2026-01-08T13:19:04.115136
MEAN_MOTION    = 14.86714149
ECCENTRICITY   = .00781682
INCLINATION    = 82.5285
RA_OF_ASC_NODE = 316.3215
ARG_OF_PERICENTER = 111.5883
MEAN_ANOMALY   = 249.3686

EPHEMERIS_TYPE = 0
CLASSIFICATION_TYPE = U
NORAD_CAT_ID   = 16496
ELEMENT_SET_NO = 999
REV_AT_EPOCH   = 14027
BSTAR          = .88476468E-4
MEAN_MOTION_DOT = .86E-5
MEAN_MOTION_DDOT = 0

CCSDS_OMM_VERS = 2.0
CREATION_DATE  = 
ORIGINATOR     = 

OBJECT_NAME    = COSMOS 1743
OBJECT_ID      = 1986-034A
CENTER_NAME    = EARTH
REF_FRAME      = TEME
TIME_SYSTEM    = UTC
MEAN_ELEMENT_THEORY = SGP/SGP4

EPOCH          = 2026-01-08T09:28:13.158336
MEAN_MOTION    = 15.54013608
ECCENTRICITY   = .00052041
INCLINATION    = 82.5359
RA_OF_ASC_NODE = 136.8716
ARG_OF_PERICENTER = 149.8031
MEAN_ANOMALY   = 210.3524

EPHEMERIS_TYPE = 0
CLASSIFICATION_TYPE = U
NORAD_CAT_ID   = 16719
ELEMENT_SET_NO = 999
REV_AT_EPOCH   = 17087
BSTAR          = .57245154E-3
MEAN_MOTION_DOT = .37178E-3
MEAN_MOTION_DDOT = 0

